#dP2019  9 28  0  0  0.00000000      96 __u+U IGS08 FIT  IAC
## 2072 518400.00000000   900.00000000 58754 0.0000000000000
+  114   C01C02C04C05C06C07C08C09C10C11C12C13C16C19C20C21C22
+        C23C24C25C26C27C28C29C30C32C33C34C35C36C37E01E02E03
+        E04E05E07E08E09E11E12E13E14E15E18E19E21E24E25E26E27
+        E30E31E33E36G01G02G03G04G05G06G07G08G09G10G11G12G13
+        G14G15G16G17G18G19G20G21G22G23G24G25G26G27G28G29G30
+        G31G32J01J02J03J07R01R02R03R05R07R08R09R11R12R13R14
+        R15R16R17R18R19R20R21R22R23R24R26R27  0  0  0  0  0
++        13 12 13 12  8  8  8  8  8  7  7  7  8  7  7  7  7
++         7  7  7  8  8  7  8  8  8  7  8  9  9  8  4  4  4
++         4  4  4  4  4  4  4  4  5  4  4  4  4  4  4  4  4
++         4  4  4  4  3  3  3  3  5  3  3  3  3  3  3  3  3
++         3  3  3  3  3  3  3  3  3  4  3  3  3  3  3  3  3
++         3  3  8  8  8 13  6  5  5  5  5  5  5  5  5  6  5
++         5  6  5  5  6  6  5  5  5  6  8  8  0  0  0  0  0
%c M  cc GPS ccc cccc cccc cccc cccc ccccc ccccc ccccc ccccc
%c cc cc ccc ccc cccc cccc cccc cccc ccccc ccccc ccccc ccccc
%f  1.2500000  1.025000000  0.00000000000  0.000000000000000
%f  0.0000000  0.000000000  0.00000000000  0.000000000000000
%i    0    0    0    0      0      0      0      0         0
%i    0    0    0    0      0      0      0      0         0
/* INFORMATION & ANALYSIS CENTER (IAC)            FINAL DATA
/* S/V CLOCKS ARE ALIGNED TO GNSS TIME                      
/* G:C1WC2W R:C1PC2P E:C1XC5X C:C2IC6I J:C1CC2S             
/* PCV:IGS14_2070 OL/AL:FES2004  NONE     YN ORB:CoN CLK:CoN
*  2019 09 28  5 15  0.00000000
PC01 -32344.427336  27031.474979   -636.299009    -54.889822
PC02   4385.149305  41929.560943    967.687622    843.180545
PC04 -39609.776997  14420.282037   -224.903244   -378.536629
PC05  21896.487210  36041.014066   1143.230608    143.029109
PC06 -14667.351480  38365.824322  10714.714119    389.521720
PC07 -10838.268591  23909.326189 -32755.885040   -159.009394
PC08 -25406.517602  24574.649355  22800.558812     -9.025516
PC09  -5996.573039  41668.453602  -4428.416904     -0.218434
PC10   3792.717544  30346.098872 -28679.109376   -217.717555
PC11  -7064.779283 -15976.353435 -21725.279454     87.942418
PC12  13994.380467 -24199.133896   -251.490712   -251.117778
PC13 -10473.832339  26376.518888  31141.576221   -872.354187
PC16 -11222.064316  40208.238622   6574.261397   -882.945062
PC19  19144.479994  16534.553639 -11746.712630    204.462533
PC20  10512.052332  25290.792176   5275.607157   -109.669446
PC21   4621.744107 -19290.571616 -19625.046337    287.331899
PC22  16755.193558  -2015.000591 -22220.527971   -155.159149
PC23 -26905.308716   4025.353491  -6219.420323   -930.264181
PC24  -7132.013461 -15662.695762  21970.190539   -892.722525
PC25 -24546.139478  -7453.883305  10971.686884   -361.826784
PC26  13027.955698 -14348.299252  20090.802389    403.112298
PC27 -14291.775342  23974.859825    291.703847    197.143597
PC28 -19833.522632  11320.703351 -16025.504847    191.604901
PC29  14113.876510   7327.941631  22926.145900    124.542597
PC30    314.853882  22669.848944  16278.929314    199.672278
PC32  -4521.073245  19310.710434  19635.534299   -917.107332
PC33 -19242.057419 -16498.166415  11698.379061   -422.327601
PC34   -523.144362 -22514.403833 -16472.889616   -111.175396
PC35  19476.883420 -11870.068538  16062.954419   -386.107129
PC36  24289.381333   8079.681248 -11065.575374   -900.125230
PC37 -13874.235388  13853.548183 -19825.943959 999999.999999
PE01   5929.599437  18675.146748 -22175.096687   -699.185170
PE02  -6001.351243 -18693.819292  22158.114573     81.860610
PE03  -2101.304344 -29494.605401  -1553.990417   -215.738180
PE04  13574.269633  21011.848230 -15819.453024   -374.340717
PE05  10718.248195 -20754.281326 -18185.113970   -444.796916
PE07 -17201.823649    -79.491678  24094.019470   -273.725941
PE08 -13702.014808 -20810.169662  15993.752987   6285.608247
PE09  17047.203858   -128.489304 -24194.871766   6302.456155
PE11  25082.962632  -7265.129540  13923.618299   5574.871962
PE12  13615.681416   9953.900751  24323.488345   6176.707602
PE13 -24991.441312   7292.881917 -14078.939636    393.464636
PE14  11606.931906  10956.607253  17205.760379   -736.335542
PE15 -13903.328844  -9560.991451 -24314.986688    893.713652
PE18 -18388.556074 -10073.912473 -24940.910644   -830.700433
PE19    765.974042  29377.741116   3539.415730     -3.722953
PE21 -15095.492711  10255.968258 -23300.003324   -557.266111
PE24  27234.394020   4237.967887  10807.324723   5848.309587
PE25  15156.709106 -10222.560579  23291.038720   1664.691068
PE26 -21493.659768  19822.197975   4564.933017   4056.757293
PE27 -27279.645539  -4217.902890 -10680.838246    378.223650
PE30 -23357.476595 -16283.740522   8084.833304   4511.284552
PE31  23424.579005  16149.052038  -8132.329078   -468.960999
PE33  -5347.034836  20842.330428  20327.174821   -470.548902
PE36  21452.974009 -19910.702487  -4437.723845    656.564452
PG01   -179.189485 -15400.314163 -21802.706235   -143.615503
PG02 -19332.209322  15428.446058  10109.690486   -314.433016
PG03 -10208.677815 -21059.522745 -12701.593950    -15.822993
PG04  12894.261430 -16308.375847  15900.698691     15.139060
PG05  -8964.257365  12529.065915  21492.625480     -1.809703
PG06 -25663.122665   5643.605013  -3931.452891    -72.018842
PG07 -16781.060118  -8896.202102  19035.472029   -115.603465
PG08   5031.439992 -25960.262901    -97.090052     -8.021158
PG09  -9457.508095 -17297.897786  17747.347969    -42.450482
PG10  22159.587043   8680.417415 -11951.722620    -71.744841
PG11   1413.196121 -20392.920182 -17626.642945   -494.312291
PG12   5234.428703  20781.900165 -16006.748026    199.586973
PG13 -12987.521751  21846.997218   7478.481787    -41.920163
PG14  16115.830219 -10761.377247 -17756.858371    -59.021468
PG15  -1951.017129  26253.263945  -1275.248487   -283.809559
PG16  11125.911347  -9582.633682  21946.136114    -78.179835
PG17 -14984.654696    756.333201 -21491.435623    133.914476
PG18   8709.901860 -17396.517843 -18543.168100     89.021691
PG19 -16323.359570   7778.035926 -19763.477257   -261.242040
PG20  22716.321721  13795.035982  -2187.511691    527.024556
PG21  19886.435454   5516.584929  17404.798578   -111.435813
PG22  -3826.062425 -19456.303912 -17495.704293   -759.070893
PG23  -2520.536659 -24514.996612   9719.971556   -164.480785
PG24  -1800.395240  16861.072641 -20532.375327     -2.738195
PG25  17245.645393  19891.783511  -4644.630401    -13.770045
PG26  18457.812615  -2185.301391  19025.815317     49.094475
PG27  12145.818518 -20402.952390  11468.219219    -69.899888
PG28 -20768.095886 -10460.588742 -12128.841873    760.855621
PG29   6147.395029  19487.636718  16920.475156     85.964487
PG30 -24239.801766  -1505.719512  11014.976365    -49.980123
PG31  25983.265863  -6350.341834  -1819.976969      7.369241
PG32  15597.584136  -1106.162048 -21393.569758     72.512816
PJ01 -24594.301275  24219.747728  29201.989110   -343.636465
PJ02 -30748.192542  14958.599079 -20195.460182     -4.772440
PJ03 -23763.373959  31545.484113 -10139.013443     -2.743158
PJ07 -25397.555133  33650.066838     35.069507     -0.059880
PR01 -12184.595017  -1865.350615  22331.410948     50.378532
PR02  -2602.242262  18172.666126  17771.508048    390.218591
PR03   7361.034935  24343.433528   2307.905507      2.235259
PR05  11181.892791   -606.037460 -22914.192228     36.526774
PR07  -7634.839748 -24258.672657  -1657.518957    -27.247973
PR08 -13048.482857 -16541.035898  14420.543989     15.429029
PR09   7903.136055  -9583.260666  22288.276163     92.918990
PR11 -23028.665618  -8065.118365   7547.926703    -80.848340
PR12 -23789.643865    -73.381757  -9146.518875     65.463954
PR13 -10524.161175   8531.989712 -21622.755674    -28.974249
PR14   8452.223807  11815.284295 -20942.163127     43.440924
PR15  22601.531039   8355.118738  -8335.361284    104.166372
PR16  23779.031620   -530.173063   9356.180905      3.559698
PR17  -4118.733150  17422.260451  18154.149091    263.823677
PR18   9187.467542   5407.102342  23182.608290      8.991129
PR19  17822.851199  -9043.592751  15855.613214    -56.045736
PR20  16255.615708 -19472.435678  -2510.593076   -391.745285
PR21   3643.957548 -17061.226186 -18627.142035    -75.211593
PR22 -11228.233338  -2713.109539 -22754.688665   -177.482734
PR23 -18536.240799  13611.302103 -11037.334928    256.731580
PR24 -14971.015353  20144.515463   4540.011207   -185.167049
PR26  17124.843942 -18904.980306    973.803724     -2.088088
PR27  19727.671918  10015.636084 -12764.135294    124.858523
EOF
